TITAN 4B R/B            
1 26474U 00047B   22324.51109142  .00001169  00000+0  10761-3 0  9994
2 26474  67.9916 155.1729 0058734 300.4095  59.1251 14.97385438211808
ENVISAT                 
1 27386U 02009A   22324.51893817  .00000158  00000+0  65707-4 0  9994
2 27386  98.2038 298.4583 0001320  87.0314  24.1772 14.38187341 85899
IDEFIX & ARIANE 42P R/B 
1 27422U 02021B   22324.47092745  .00000191  00000+0  91170-4 0  9995
2 27422  98.4674 265.8998 0012850 132.9720 227.2542 14.29489667 71743
AQUA                    
1 27424U 02022A   22324.49515003  .00000607  00000+0  14376-3 0  9991
2 27424  98.2636 265.0225 0001942  86.1486  47.6766 14.57476827 92914
CZ-4B R/B               
1 27432U 02024C   22324.55130319  .00000028  00000+0  38360-4 0  9999
2 27432  99.0490 351.7791 0050176 194.9296 283.1699 14.14162774 58887
MIDORI II (ADEOS-II)    
1 27597U 02056A   22324.55492820  .00000182  00000+0  91661-4 0  9998
2 27597  98.6240 266.1947 0000316  30.5695 329.5504 14.27686878 38246
H-2A R/B                
1 27601U 02056E   22324.57847911  .00000213  00000+0  91418-4 0  9996
2 27601  98.1817 322.3844 0072436 154.7035 315.9375 14.32153317 41520
CZ-4B R/B               
1 28059U 03049C   22324.43732602  .00000323  00000+0  89239-4 0  9992
2 28059  98.5350 263.7873 0049055 311.9323  47.7695 14.52892328 11461
CZ-2C R/B               
1 28222U 04012C   22324.54708834  .00003866  00000+0  21278-3 0  9990
2 28222  97.7879 308.5453 0041875 236.3234 240.8323 15.13939687 19847
SL-16 R/B               
1 28353U 04021B   22324.16927832  .00000334  00000+0  19946-3 0  9990
2 28353  71.0015 241.6788 0003176  58.1187 302.0244 14.14287864952365
CZ-4B R/B               
1 28415U 04035C   22324.54278150  .00002176  00000+0  13857-3 0  9999
2 28415  97.4985   1.5337 0048636 203.2970 156.6055 15.08861501997124
CZ-2C R/B               
1 28480U 04046B   22324.53844990  .00000122  00000+0  60476-4 0  9992
2 28480  98.0835 300.1160 0142687 119.6307 241.9174 14.25882759936684
ARIANE 5 R/B            
1 28499U 04049H   22324.31586875  .00000613  00000+0  82121-4 0  9992
2 28499  98.1144  82.6336 0089909 291.2909  89.7335 14.80634475967140
CZ-2D R/B               
1 28738U 05024B   22324.55270730  .00003931  00000+0  21396-3 0  9990
2 28738  97.3534 327.4083 0011306   6.6742 353.4639 15.14954441955374
SUZAKU (ASTRO-EII)      
1 28773U 05025A   22324.46933938  .00007144  00000+0  29145-3 0  9996
2 28773  31.3806   0.6586 0004520 154.0954 205.9922 15.23038073958816
ALOS (DAICHI)           
1 28931U 06002A   22310.47227537 -.00000030  00000+0  29392-5 0  9999
2 28931  97.9551 270.1655 0001426 133.0925 227.0374 14.63410704895190
H-2A R/B                
1 28932U 06002B   22324.19710184  .00001814  00000+0  16405-3 0  9998
2 28932  98.2728  15.0948 0084370 301.1771  58.1195 14.94230603913296
AKARI (ASTRO-F)         
1 28939U 06005A   22324.53241560  .00033890  00000+0  44519-3 0  9999
2 28939  98.1872  59.1010 0055038  76.1235 284.6132 15.56598204917265
CZ-4B R/B               
1 29093U 06015B   22324.09616556  .00043824  00000+0  35503-3 0  9995
2 29093  97.5726 195.1594 0028235 329.9662  29.9979 15.70119764923877
RESURS-DK 1             
1 29228U 06021A   22324.50714632  .00001272  00000+0  99903-4 0  9998
2 29228  69.9350  91.2043 0005391 216.8080 143.2712 15.03654538905834
GENESIS 1               
1 29252U 06029A   22324.32381562  .00005042  00000+0  21988-3 0  9991
2 29252  64.5211 278.7386 0050381 239.0507 120.5662 15.22253809902689
CZ-4B R/B               
1 29507U 06046C   22324.55874279  .00001797  00000+0  13755-3 0  9996
2 29507  97.7150 353.9431 0045885  68.1582 292.4514 15.02360017878300
CZ-2C R/B               
1 31114U 07010B   22324.47896401  .00000076  00000+0  54156-4 0  9997
2 31114  98.2536 126.9264 0059250 201.9131 157.9512 14.19471347808695
COSMO-SKYMED 1          
1 31598U 07023A   22324.28374579  .00000700  00000+0  94462-4 0  9991
2 31598  97.8880 145.7349 0001479  92.6589 267.4794 14.82153784836044
GENESIS 2               
1 31789U 07028A   22324.51194749  .00005408  00000+0  24072-3 0  9992
2 31789  64.4957 321.7085 0058698 290.9536  68.5313 15.21054811849624
COSMOS 2428             
1 31792U 07029A   22324.13635358 -.00000150  00000+0 -55217-4 0  9998
2 31792  70.9515 213.3460 0009381 188.3196 171.7771 14.12598597793839
SL-16 R/B               
1 31793U 07029B   22324.34414880  .00000173  00000+0  11538-3 0  9997
2 31793  70.9744 185.3678 0002005 277.8479 256.0675 14.14484753794906
KORONAS-FOTON           
1 33504U 09003A   22324.53538272  .00003483  00000+0  16876-3 0  9993
2 33504  82.4429  60.1337 0019481  89.7656 270.5809 15.18054485761769
H-2A R/B                
1 38341U 12025E   22324.54204874  .00001207  00000+0  14524-3 0  9994
2 38341  98.4819 190.0402 0053116 264.6324  94.8827 14.85081189568810
CUSAT 2 & FALCON 9 R/B  
1 39271U 13055G   22324.54438864  .00017975  00000+0  36742-3 0  9994
2 39271  80.9574  22.4524 0498885 354.8155   4.7979 14.70301084479643
SHIJIAN-16 (SJ-16)      
1 39358U 13057A   22324.53562165  .00000651  00000+0  76646-4 0  9994
2 39358  74.9742 295.5231 0018036 149.7823 210.4413 14.86443645492186
CZ-2C R/B               
1 39364U 13059B   22324.39719709  .00009358  00000+0  27663-3 0  9992
2 39364  97.1403  12.5173 0041309 131.1905 229.2913 15.34271433504096
SL-4 R/B                
1 39679U 14021B   22324.38356592  .00002689  00000+0  13718-3 0  9993
2 39679  51.6137 309.2422 0162132 140.8082 220.4762 15.09862250472665
ALOS-2                  
1 39766U 14029A   22324.56913593  .00000131  00000+0  24398-4 0  9995
2 39766  97.9227  59.4621 0001384  89.2187 270.9249 14.79472149458713
CZ-2C R/B               
1 40306U 14071B   22324.48636479  .00102071  00000+0  48932-3 0  9995
2 40306  97.4251 307.5950 0010171 119.5628 240.6655 15.82370862451374
SL-27 R/B               
1 40354U 14084B   22324.49268577  .00006673  00000+0  13451-3 0  9992
2 40354  74.7373 350.1028 0030319  88.1701 272.2986 15.46179946444694
YAOGAN-29               
1 41038U 15069A   22324.49423045  .00000360  00000+0  53410-4 0  9996
2 41038  98.0620 325.4735 0001138  38.6841 321.4453 14.80992468377386
ASTRO-H (HITOMI)        
1 41337U 16012A   22324.22269896  .00001535  00000+0  11414-3 0  9992
2 41337  31.0035 150.6724 0011859 189.1234 170.9187 14.99853791370525
HXMT (HUIYAN)           
1 42758U 17034A   22324.45203938  .00003378  00000+0  20901-3 0  9993
2 42758  43.0166 209.8551 0009418 190.3267 340.2350 15.11460236299778
CZ-2C R/B               
1 43521U 18054D   22324.51461680  .00004059  00000+0  20198-3 0  9997
2 43521  35.1513 110.5788 0077022  25.1421 335.3015 15.14523560243346
AEOLUS                  
1 43600U 18066A   22323.00090864  .00109978  00000+0  41566-3 0  9991
2 43600  96.7336 326.3769 0008300  96.0205 264.2014 15.87372905245634
SAOCOM 1A               
1 43641U 18076A   22324.56220761 -.00001762  00000+0 -21488-3 0  9995
2 43641  97.8862 149.0380 0001328  86.3161 273.8232 14.82139528222853
H-2A R/B                
1 43682U 18084L   22324.54629298  .00002454  00000+0  17021-3 0  9990
2 43682  98.8955 311.3365 0055279 110.0320 250.6865 15.05599548222791
SAOCOM 1B               
1 46265U 20059A   22324.59333389 -.00000136  00000+0 -10539-4 0  9998
2 46265  97.8865 148.1297 0001375  64.4197 295.6850 14.82156196120255
CSS (TIANHE)            
1 48274U 21035A   22324.39096951  .00019188  00000+0  24531-3 0  9995
2 48274  41.4787 347.4910 0005899 282.2033  93.0027 15.58758133 89191
2022-019U               
1 51842U 22019U   22324.51138028  .00005467  00000+0  20226-3 0  9991
2 51842  97.5474  43.3805 0065135   2.1062  53.8247 15.26114795 40567
SZ-13 MODULE            
1 52260U 21092C   22324.40476153  .00052853  00000+0  27702-3 0  9995
2 52260  41.4781 328.6687 0012299 176.1167 183.9776 15.79795270 33957
CZ-2C R/B               
1 52794U 22058K   22324.27290505  .00002950  00000+0  16739-3 0  9991
2 52794  50.1718 156.1977 0101171 356.0546   3.9598 15.11979829 25853
